{
    "links": {
        "self": "http://www.neowsapp.com/rest/v1/neo/3145506?api_key=iIulBulltgU6a56xZRHN4H3l9WmuAYTsLGpBGhQ2"
    },
    "id": "3145506",
    "neo_reference_id": "3145506",
    "name": "(2002 YC12)",
    "designation": "2002 YC12",
    "nasa_jpl_url": "http://ssd.jpl.nasa.gov/sbdb.cgi?sstr=3145506",
    "absolute_magnitude_h": 25.3,
    "estimated_diameter": {
        "kilometers": {
            "estimated_diameter_min": 0.0231502122,
            "estimated_diameter_max": 0.0517654482
        },
        "meters": {
            "estimated_diameter_min": 23.150212221,
            "estimated_diameter_max": 51.7654482198
        },
        "miles": {
            "estimated_diameter_min": 0.0143848705,
            "estimated_diameter_max": 0.0321655483
        },
        "feet": {
            "estimated_diameter_min": 75.9521422633,
            "estimated_diameter_max": 169.8341531374
        }
    },
    "is_potentially_hazardous_asteroid": false,
    "close_approach_data": [
        {
            "close_approach_date": "2003-01-04",
            "close_approach_date_full": "2003-Jan-04 06:33",
            "epoch_date_close_approach": 1041661980000,
            "relative_velocity": {
                "kilometers_per_second": "9.6512453155",
                "kilometers_per_hour": "34744.4831357184",
                "miles_per_hour": "21588.8706461912"
            },
            "miss_distance": {
                "astronomical": "0.0224264811",
                "lunar": "8.7239011479",
                "kilometers": "3354953.804155257",
                "miles": "2084671.6263942666"
            },
            "orbiting_body": "Earth"
        }
    ],
    "orbital_data": {
        "orbit_id": "10",
        "orbit_determination_date": "2017-04-06 09:14:28",
        "first_observation_date": "2002-12-31",
        "last_observation_date": "2003-01-07",
        "data_arc_in_days": 7,
        "observations_used": 42,
        "orbit_uncertainty": "8",
        "minimum_orbit_intersection": ".0224267",
        "jupiter_tisserand_invariant": "4.043",
        "epoch_osculation": "2452642.5",
        "eccentricity": ".4387998298666051",
        "semi_major_axis": "1.716493735208842",
        "inclination": "11.47276375623052",
        "ascending_node_longitude": "99.50716633700897",
        "orbital_period": "821.4133575188589",
        "perihelion_distance": ".9632965762321083",
        "perihelion_argument": "32.78576948534903",
        "aphelion_distance": "2.469690894185575",
        "perihelion_time": "2452667.386768183778",
        "mean_anomaly": "349.0929013216657",
        "mean_motion": ".4382689868684473",
        "equinox": "J2000",
        "orbit_class": {
            "orbit_class_type": "APO",
            "orbit_class_description": "Near-Earth asteroid orbits which cross the Earth’s orbit similar to that of 1862 Apollo",
            "orbit_class_range": "a (semi-major axis) > 1.0 AU; q (perihelion) < 1.017 AU"
        }
    },
    "is_sentry_object": false
}